COSMOS 2251 DEB         
1 34854U 93036ABY 26057.20973524  .00004586  00000+0  62722-3 0  9991
2 34854  74.0309  10.5363 0062409 103.6269 257.1866 14.77477520729967
COSMOS 2251 DEB         
1 34856U 93036ACA 26060.03738252  .00028143  00000+0  16722-2 0  9998
2 34856  73.9926 283.2377 0029679  40.3227 116.5196 15.10801692902921
COSMOS 2251 DEB         
1 34859U 93036ACD 26060.35468688  .00217712  00000+0  71745-2 0  9997
2 34859  74.0277 174.5478 0012664 328.0449  31.9985 15.30406281895549
COSMOS 2251 DEB         
1 34875U 93036ACN 26060.29350306  .00001932  00000+0  51316-3 0  9993
2 34875  74.0462  10.9966 0013924 120.6577  29.6489 14.49243695888931
COSMOS 2251 DEB         
1 34878U 93036ACR 26059.97235134  .00000230  00000+0  24698-3 0  9993
2 34878  73.9631 283.1849 0435497 251.7923 172.7325 13.44293218823240
COSMOS 2251 DEB         
1 34882U 93036ACV 26059.46243163  .00000700  00000+0  13978-3 0  9994
2 34882  74.0441  76.9631 0082949 185.9252 174.0943 14.61772591896603
COSMOS 2251 DEB         
1 34883U 93036ACW 26060.00321468  .00016189  00000+0  36358-2 0  9996
2 34883  74.1978 276.5563 0091459  77.1233 284.0128 14.53931672875768
COSMOS 2251 DEB         
1 34885U 93036ACY 26060.39315201  .00003462  00000+0  86195-3 0  9993
2 34885  74.0314  34.8554 0012147 107.5312  53.9990 14.52034434886201
COSMOS 2251 DEB         
1 34886U 93036ACZ 26059.53862630  .00179856  00000+0  23827-2 0  9994
2 34886  73.9475  10.2626 0025743 182.5911 177.5177 15.57203569642012
COSMOS 2251 DEB         
1 34908U 93036ADD 26059.73881829  .00001703  00000+0  56942-3 0  9992
2 34908  74.0555 240.2847 0041240 239.9439 136.6851 14.37719310884005
COSMOS 2251 DEB         
1 34909U 93036ADE 26059.93845985  .00003378  00000+0  44182-3 0  9991
2 34909  74.0125 282.7569 0082266  37.2933 323.3914 14.78479928680071
COSMOS 2251 DEB         
1 34911U 93036ADG 26059.15184076  .00000528  00000+0  11238-3 0  9995
2 34911  74.0389  97.1927 0084367 204.7085 214.3937 14.59506148897163
COSMOS 2251 DEB         
1 34918U 93036ADP 26058.73686052  .00007608  00000+0  14931-2 0  9994
2 34918  74.0710 166.5626 0026893 113.3417  37.3040 14.62624432664610
COSMOS 2251 DEB         
1 34944U 93036ADX 26060.49877632  .00001305  00000+0  54974-3 0  9995
2 34944  73.7459  89.9190 0222589 284.5835  73.0714 14.14395897651960
COSMOS 2251 DEB         
1 34946U 93036ADZ 26059.06138575  .00003016  00000+0  58945-3 0  9997
2 34946  74.0228 193.9066 0051718 310.6161  49.0512 14.62511817893394
COSMOS 2251 DEB         
1 34949U 93036AEC 26059.40082795  .00002952  00000+0  42758-3 0  9993
2 34949  74.0190 317.8773 0077355  83.5544 277.4430 14.74531253895064
COSMOS 2251 DEB         
1 34953U 93036AEG 26060.48183669  .00006406  00000+0  10472-2 0  9995
2 34953  74.0895 235.4540 0057004 208.4861 182.8526 14.69960039892858
COSMOS 2251 DEB         
1 34955U 93036AEJ 26056.78033026  .00006700  00000+0  48246-3 0  9994
2 34955  74.0350  93.6554 0072226 145.6439 214.9452 15.02261381911603
COSMOS 2251 DEB         
1 34962U 93036AER 26058.96494006  .00001571  00000+0  43998-3 0  9993
2 34962  74.0291  49.0697 0017220 152.0743 208.1343 14.46824905886958
COSMOS 2251 DEB         
1 34963U 93036AES 26058.24465479  .00004250  00000+0  10482-2 0  9995
2 34963  74.1684 259.9025 0041035  72.0297 288.5332 14.51927779879118
COSMOS 2251 DEB         
1 34964U 93036AET 26053.15572998  .00002211  00000+0  12313-2 0  9996
2 34964  73.9708 223.5095 0210482  65.8477 296.4506 14.00941527854789
COSMOS 2251 DEB         
1 34965U 93036AEU 26057.47254543  .00001036  00000+0  27987-3 0  9997
2 34965  74.0542 346.6620 0024192  95.0953 265.2969 14.48919356882105
COSMOS 2251 DEB         
1 34967U 93036AEW 26057.44062581  .00001725  00000+0  50050-3 0  9997
2 34967  73.9926 112.6011 0041714 244.3813 115.3031 14.44660564660502
