OBJECT_NAME,OBJECT_ID,EPOCH,MEAN_MOTION,ECCENTRICITY,INCLINATION,RA_OF_ASC_NODE,ARG_OF_PERICENTER,MEAN_ANOMALY,EPHEMERIS_TYPE,CLASSIFICATION_TYPE,NORAD_CAT_ID,ELEMENT_SET_NO,REV_AT_EPOCH,BSTAR,MEAN_MOTION_DOT,MEAN_MOTION_DDOT
COSMOS 2251 DEB,1993-036ABY,2026-02-26T05:02:01.124736,14.77477520,.0062409,74.0309,10.5363,103.6269,257.1866,0,U,34854,999,72996,.62722E-3,.4586E-4,0
COSMOS 2251 DEB,1993-036ACA,2026-03-01T00:53:49.849728,15.10801692,.00296797,73.9926,283.2377,40.3227,116.5196,0,U,34856,999,90292,.16722264E-2,.28143E-3,0
COSMOS 2251 DEB,1993-036ACD,2026-03-01T08:30:44.946432,15.30406281,.0012664,74.0277,174.5478,328.0449,31.9985,0,U,34859,999,89554,.71745E-2,.217712E-2,0
COSMOS 2251 DEB,1993-036ACN,2026-03-01T07:02:38.664384,14.49243695,.0013924,74.0462,10.9966,120.6577,29.6489,0,U,34875,999,88893,.51316E-3,.1932E-4,0
COSMOS 2251 DEB,1993-036ACR,2026-02-28T23:20:11.155776,13.44293218,.0435497,73.9631,283.1849,251.7923,172.7325,0,U,34878,999,82324,.24698E-3,.23E-5,0
COSMOS 2251 DEB,1993-036ACV,2026-02-28T11:05:54.092832,14.61772591,.00829499,74.0441,76.9631,185.9252,174.0943,0,U,34882,999,89660,.1397823E-3,.7E-5,0
COSMOS 2251 DEB,1993-036ACW,2026-03-01T00:04:37.748352,14.53931672,.0091459,74.1978,276.5563,77.1233,284.0128,0,U,34883,999,87576,.3635805E-2,.16189E-3,0
COSMOS 2251 DEB,1993-036ACY,2026-03-01T09:26:08.333664,14.52034434,.0012147,74.0314,34.8554,107.5312,53.9990,0,U,34885,999,88620,.86195E-3,.3462E-4,0
COSMOS 2251 DEB,1993-036ACZ,2026-02-28T12:55:37.312320,15.57203569,.00257436,73.9475,10.2626,182.5911,177.5177,0,U,34886,999,64201,.23826648E-2,.179856E-2,0
COSMOS 2251 DEB,1993-036ADD,2026-02-28T17:43:53.900256,14.37719310,.00412409,74.0555,240.2847,239.9439,136.6851,0,U,34908,999,88400,.56942096E-3,.1703E-4,0
COSMOS 2251 DEB,1993-036ADE,2026-02-28T22:31:22.931040,14.78479928,.0082266,74.0125,282.7569,37.2933,323.3914,0,U,34909,999,68007,.44182E-3,.3378E-4,0
COSMOS 2251 DEB,1993-036ADG,2026-02-28T03:38:39.041664,14.59506148,.00843676,74.0389,97.1927,204.7085,214.3937,0,U,34911,999,89716,.11238091E-3,.528E-5,0
COSMOS 2251 DEB,1993-036ADP,2026-02-27T17:41:04.748928,14.62624432,.00268931,74.0710,166.5626,113.3417,37.3040,0,U,34918,999,66461,.14930561E-2,.7608E-4,0
COSMOS 2251 DEB,1993-036ADX,2026-03-01T11:58:14.274048,14.14395897,.0222589,73.7459,89.9190,284.5835,73.0714,0,U,34944,999,65196,.54974E-3,.1305E-4,0
COSMOS 2251 DEB,1993-036ADZ,2026-02-28T01:28:23.728800,14.62511817,.00517186,74.0228,193.9066,310.6161,49.0512,0,U,34946,999,89339,.5894539E-3,.3016E-4,0
COSMOS 2251 DEB,1993-036AEC,2026-02-28T09:37:11.534880,14.74531253,.00773559,74.0190,317.8773,83.5544,277.4430,0,U,34949,999,89506,.42757878E-3,.2952E-4,0
COSMOS 2251 DEB,1993-036AEG,2026-03-01T11:33:50.690016,14.69960039,.0057004,74.0895,235.4540,208.4861,182.8526,0,U,34953,999,89285,.10472E-2,.6406E-4,0
COSMOS 2251 DEB,1993-036AEJ,2026-02-25T18:43:40.534464,15.02261381,.00722267,74.0350,93.6554,145.6439,214.9452,0,U,34955,999,91160,.48245529E-3,.67E-4,0
COSMOS 2251 DEB,1993-036AER,2026-02-27T23:09:30.821184,14.46824905,.001722,74.0291,49.0697,152.0743,208.1343,0,U,34962,999,88695,.43998E-3,.1571E-4,0
COSMOS 2251 DEB,1993-036AES,2026-02-27T05:52:18.173856,14.51927779,.0041035,74.1684,259.9025,72.0297,288.5332,0,U,34963,999,87911,.10482E-2,.425E-4,0
COSMOS 2251 DEB,1993-036AET,2026-02-22T03:44:15.070272,14.00941527,.02104826,73.9708,223.5095,65.8477,296.4506,0,U,34964,999,85478,.12312947E-2,.2211E-4,0
COSMOS 2251 DEB,1993-036AEU,2026-02-26T11:20:27.925152,14.48919356,.0024192,74.0542,346.6620,95.0953,265.2969,0,U,34965,999,88210,.27987E-3,.1036E-4,0
COSMOS 2251 DEB,1993-036AEW,2026-02-26T10:34:30.069984,14.44660564,.0041714,73.9926,112.6011,244.3813,115.3031,0,U,34967,999,66050,.5005E-3,.1725E-4,0
